HELIOS 2A               
1 28492U 04049A   22216.37059891 -.00000227  00000+0 -15621-4 0  9998
2 28492  98.2360 161.6394 0013164 286.4986  73.4781 14.93237229942279
CFESAT                  
1 30777U 07006F   22216.45970711  .00043001  00000+0  47068-3 0  9999
2 30777  35.4190 339.9358 0004625 113.3877 246.7344 15.62200689856586
SPIRALE A               
1 33751U 09008C   22215.68680390  .00000054  00000+0  17120-3 0  9990
2 33751   2.0054 211.4274 5436311 333.8776   6.5765  4.58855127196980
SPIRALE B               
1 33752U 09008D   22214.97741119  .00005634  00000+0  93084-3 0  9991
2 33752   2.0735  86.8929 6868713 204.7834  94.7152  2.82516653126395
SAPPHIRE                
1 39088U 13009C   22215.78373610  .00000011  00000+0  19185-4 0  9997
2 39088  98.4262  50.3571 0012251 132.0564 228.1665 14.34313400493902
